$$SOE
2460728.500000000, A.D. 2025-Feb-22 00:00:00.0000, 2.843456035237219E+08, -2.980663557181336E+08, 6.359825220296979E+05,
2460735.500000000, A.D. 2025-Mar-01 00:00:00.0000, 2.930615831491795E+08, -2.917666620087210E+08, -4.300681543340087E+05,
2460742.500000000, A.D. 2025-Mar-08 00:00:00.0000, 3.015764169640211E+08, -2.852667399071248E+08, -1.495825565788150E+06,
2460749.500000000, A.D. 2025-Mar-15 00:00:00.0000, 3.098866277710122E+08, -2.785732850173503E+08, -2.560570144293889E+06,
2460756.500000000, A.D. 2025-Mar-22 00:00:00.0000, 3.179889567518249E+08, -2.716929727143766E+08, -3.623599036669597E+06,
2460763.500000000, A.D. 2025-Mar-29 00:00:00.0000, 3.258803558753285E+08, -2.646324543540727E+08, -4.684226084014967E+06,
2460770.500000000, A.D. 2025-Apr-05 00:00:00.0000, 3.335579820449080E+08, -2.573983530759510E+08, -5.741781853307515E+06,
2460777.500000000, A.D. 2025-Apr-12 00:00:00.0000, 3.410191910798494E+08, -2.499972590715185E+08, -6.795613539307833E+06,
2460784.500000000, A.D. 2025-Apr-19 00:00:00.0000, 3.482615313616706E+08, -2.424357251764500E+08, -7.845084794775277E+06,
2460791.500000000, A.D. 2025-Apr-26 00:00:00.0000, 3.552827374327795E+08, -2.347202629664379E+08, -8.889575533482447E+06,
2460798.500000000, A.D. 2025-May-03 00:00:00.0000, 3.620807236749476E+08, -2.268573393147235E+08, -9.928481717659965E+06,
2460805.500000000, A.D. 2025-May-10 00:00:00.0000, 3.686535781081712E+08, -2.188533733804947E+08, -1.096121513435747E+07,
2460812.500000000, A.D. 2025-May-17 00:00:00.0000, 3.749995563565576E+08, -2.107147340477035E+08, -1.198720316984576E+07,
2460819.500000000, A.D. 2025-May-24 00:00:00.0000, 3.811170759629543E+08, -2.024477378473898E+08, -1.300588860470690E+07,
2460826.500000000, A.D. 2025-May-31 00:00:00.0000, 3.870047114771301E+08, -1.940586470310089E+08, -1.401672944450551E+07,
2460833.500000000, A.D. 2025-Jun-07 00:00:00.0000, 3.926611899245365E+08, -1.855536665702547E+08, -1.501919865248452E+07,
2460840.500000000, A.D. 2025-Jun-14 00:00:00.0000, 3.980853842978875E+08, -1.769389407339317E+08, -1.601278362349501E+07,
2460847.500000000, A.D. 2025-Jun-21 00:00:00.0000, 4.032763062902136E+08, -1.682205524973472E+08, -1.699698577974445E+07,
2460854.500000000, A.D. 2025-Jun-28 00:00:00.0000, 4.082331013967519E+08, -1.594045240017515E+08, -1.797132043250759E+07,
2460861.500000000, A.D. 2025-Jul-05 00:00:00.0000, 4.129550448685449E+08, -1.504968158896545E+08, -1.893531659560177E+07,
2460868.500000000, A.D. 2025-Jul-12 00:00:00.0000, 4.174415373264552E+08, -1.415033263042019E+08, -1.988851670819561E+07,
2460875.500000000, A.D. 2025-Jul-19 00:00:00.0000, 4.216921002254295E+08, -1.324298901107989E+08, -2.083047633223451E+07,
2460882.500000000, A.D. 2025-Jul-26 00:00:00.0000, 4.257063713804651E+08, -1.232822783819966E+08, -2.176076384920283E+07,
2460889.500000000, A.D. 2025-Aug-02 00:00:00.0000, 4.294841006217011E+08, -1.140661981107017E+08, -2.267896016125974E+07,
2460896.500000000, A.D. 2025-Aug-09 00:00:00.0000, 4.330251456031665E+08, -1.047872921551367E+08, -2.358465840085085E+07,
2460903.500000000, A.D. 2025-Aug-16 00:00:00.0000, 4.363294678412748E+08, -9.545113946882568E+07, -2.447746366170118E+07,
2460910.500000000, A.D. 2025-Aug-23 00:00:00.0000, 4.393971292723831E+08, -8.606325558929683E+07, -2.535699277721472E+07,
2460917.500000000, A.D. 2025-Aug-30 00:00:00.0000, 4.422282896537781E+08, -7.662909266053119E+07, -2.622287411837485E+07,
2460924.500000000, A.D. 2025-Sep-06 00:00:00.0000, 4.448232033873388E+08, -6.715403797785965E+07, -2.707474719941249E+07,
2460931.500000000, A.D. 2025-Sep-13 00:00:00.0000, 4.471822140935194E+08, -5.764341352977958E+07, -2.791226214108361E+07,
2460938.500000000, A.D. 2025-Sep-20 00:00:00.0000, 4.493057502038640E+08, -4.810247817332081E+07, -2.873507942629024E+07,
2460945.500000000, A.D. 2025-Sep-27 00:00:00.0000, 4.511943226247169E+08, -3.853642932179895E+07, -2.954286979076818E+07,
2460952.500000000, A.D. 2025-Oct-04 00:00:00.0000, 4.528485224518047E+08, -2.895040359633321E+07, -3.033531401975961E+07,
2460959.500000000, A.D. 2025-Oct-11 00:00:00.0000, 4.542690183594423E+08, -1.934947737591086E+07, -3.111210269359553E+07,
2460966.500000000, A.D. 2025-Oct-18 00:00:00.0000, 4.554565539455695E+08, -9.738667513031375E+06, -3.187293593089860E+07,
2460973.500000000, A.D. 2025-Oct-25 00:00:00.0000, 4.564119451696869E+08, -1.229321972397864E+05, -3.261752314166117E+07,
2460980.500000000, A.D. 2025-Nov-01 00:00:00.0000, 4.571360779205817E+08, 9.492828054998696E+06, -3.334558279295235E+07,
2460987.500000000, A.D. 2025-Nov-08 00:00:00.0000, 4.576299057457175E+08, 1.910376925814797E+07, -3.405684219340785E+07,
2460994.500000000, A.D. 2025-Nov-15 00:00:00.0000, 4.578944478871359E+08, 2.870510260940623E+07, -3.475103731527292E+07,
2461001.500000000, A.D. 2025-Nov-22 00:00:00.0000, 4.579307880223892E+08, 3.829209315882393E+07, -3.542791267328396E+07,
2461008.500000000, A.D. 2025-Nov-29 00:00:00.0000, 4.577400735520783E+08, 4.786005963784814E+07, -3.608722115368570E+07,
2461015.500000000, A.D. 2025-Dec-06 00:00:00.0000, 4.573235131538191E+08, 5.740437531639192E+07, -3.672872359572142E+07,
2461022.500000000, A.D. 2025-Dec-13 00:00:00.0000, 4.566823730355842E+08, 6.692046652191278E+07, -3.735218844122931E+07,
2461029.500000000, A.D. 2025-Dec-20 00:00:00.0000, 4.558179753777472E+08, 7.640380984618457E+07, -3.795739168936262E+07,
2461036.500000000, A.D. 2025-Dec-27 00:00:00.0000, 4.547316978852907E+08, 8.584993063508567E+07, -3.854411684610368E+07,
2461043.500000000, A.D. 2026-Jan-03 00:00:00.0000, 4.534249729878749E+08, 9.525440215019757E+07, -3.911215478498789E+07,
2461050.500000000, A.D. 2026-Jan-10 00:00:00.0000, 4.518992867950234E+08, 1.046128447272314E+08, -3.966130358456279E+07,
2461057.500000000, A.D. 2026-Jan-17 00:00:00.0000, 4.501561780364640E+08, 1.139209248434584E+08, -4.019136837134480E+07,
2461064.500000000, A.D. 2026-Jan-24 00:00:00.0000, 4.481972370631022E+08, 1.231743541205159E+08, -4.070216117348832E+07,
2461071.500000000, A.D. 2026-Jan-31 00:00:00.0000, 4.460241049298546E+08, 1.323688882588549E+08, -4.119350078784932E+07,
2461078.500000000, A.D. 2026-Feb-07 00:00:00.0000, 4.436384726200528E+08, 1.415003258500138E+08, -4.166521267073692E+07,
2461085.500000000, A.D. 2026-Feb-14 00:00:00.0000, 4.410420806630378E+08, 1.505645070543298E+08, -4.211712887685888E+07,
2461092.500000000, A.D. 2026-Feb-21 00:00:00.0000, 4.382367195302925E+08, 1.595573127228504E+08, -4.254908803483170E+07,
2461099.500000000, A.D. 2026-Feb-28 00:00:00.0000, 4.352242297214180E+08, 1.684746651187409E+08, -4.296093516515934E+07,
2461106.500000000, A.D. 2026-Mar-07 00:00:00.0000, 4.320064994792765E+08, 1.773125282912981E+08, -4.335252131097861E+07,
2461113.500000000, A.D. 2026-Mar-14 00:00:00.0000, 4.285854629093353E+08, 1.860669057709335E+08, -4.372370342687545E+07,
2461120.500000000, A.D. 2026-Mar-21 00:00:00.0000, 4.249631002819760E+08, 1.947338384831829E+08, -4.407434445211951E+07,
2461127.500000000, A.D. 2026-Mar-28 00:00:00.0000, 4.211414385038306E+08, 2.033094039128507E+08, -4.440431329939785E+07,
2461134.500000000, A.D. 2026-Apr-04 00:00:00.0000, 4.171225511524603E+08, 2.117897155562887E+08, -4.471348478234624E+07,
2461141.500000000, A.D. 2026-Apr-11 00:00:00.0000, 4.129085583481181E+08, 2.201709223050544E+08, -4.500173953643493E+07,
2461148.500000000, A.D. 2026-Apr-18 00:00:00.0000, 4.085016266222908E+08, 2.284492077564322E+08, -4.526896394845319E+07,
2461155.500000000, A.D. 2026-Apr-25 00:00:00.0000, 4.039039688290026E+08, 2.366207894668711E+08, -4.551505009761287E+07,
2461162.500000000, A.D. 2026-May-02 00:00:00.0000, 3.991178441291568E+08, 2.446819181197722E+08, -4.573989571342564E+07,
2461169.500000000, A.D. 2026-May-09 00:00:00.0000, 3.941455581718198E+08, 2.526288765426151E+08, -4.594340416708549E+07,
2461176.500000000, A.D. 2026-May-16 00:00:00.0000, 3.889894638497951E+08, 2.604579787129356E+08, -4.612548451968649E+07,
2461183.500000000, A.D. 2026-May-23 00:00:00.0000, 3.836519626799082E+08, 2.681655697758549E+08, -4.628605154838832E+07,
2461190.500000000, A.D. 2026-May-30 00:00:00.0000, 3.781355047262828E+08, 2.757480273936772E+08, -4.642502553337396E+07,
2461197.500000000, A.D. 2026-Jun-06 00:00:00.0000, 3.724425867481914E+08, 2.832017611577778E+08, -4.654233204404962E+07,
2461204.500000000, A.D. 2026-Jun-13 00:00:00.0000, 3.665757522397766E+08, 2.905232102639887E+08, -4.663790204509385E+07,
2461211.500000000, A.D. 2026-Jun-20 00:00:00.0000, 3.605375928593399E+08, 2.977088423779135E+08, -4.671167203750211E+07,
2461218.500000000, A.D. 2026-Jun-27 00:00:00.0000, 3.543307495478109E+08, 3.047551533517812E+08, -4.676358410672402E+07,
2461225.500000000, A.D. 2026-Jul-04 00:00:00.0000, 3.479579133351573E+08, 3.116586670201019E+08, -4.679358594149381E+07,
2461232.500000000, A.D. 2026-Jul-11 00:00:00.0000, 3.414218260878543E+08, 3.184159349443288E+08, -4.680163085777329E+07,
2461239.500000000, A.D. 2026-Jul-18 00:00:00.0000, 3.347252812892959E+08, 3.250235361343440E+08, -4.678767783454733E+07,
2461246.500000000, A.D. 2026-Jul-25 00:00:00.0000, 3.278711248767052E+08, 3.314780767516581E+08, -4.675169156379420E+07,
2461253.500000000, A.D. 2026-Aug-01 00:00:00.0000, 3.208622561817487E+08, 3.377761897485704E+08, -4.669364252324949E+07,
2461260.500000000, A.D. 2026-Aug-08 00:00:00.0000, 3.137016291890292E+08, 3.439145344101341E+08, -4.661350709489638E+07,
2461267.500000000, A.D. 2026-Aug-15 00:00:00.0000, 3.063922545272917E+08, 3.498897962520435E+08, -4.651126773081556E+07,
2461274.500000000, A.D. 2026-Aug-22 00:00:00.0000, 2.989372014315353E+08, 3.556986884970776E+08, -4.638691299695593E+07,
2461281.500000000, A.D. 2026-Aug-29 00:00:00.0000, 2.913395973838653E+08, 3.613379537589833E+08, -4.624043739670467E+07,
2461288.500000000, A.D. 2026-Sep-05 00:00:00.0000, 2.836026275654172E+08, 3.668043630709338E+08, -4.607184140451522E+07,
2461295.500000000, A.D. 2026-Sep-12 00:00:00.0000, 2.757295365754576E+08, 3.720947147581660E+08, -4.588113173144965E+07,
$$EOE